#dP2024 10  3  0  0  0.00000000      96 __u+U IGS20 EXT  IAC
## 2334 345600.00000000   900.00000000 60586 0.0000000000000
+   53   G02G03G04G05G06G07G08G09G10G11G12G13G14G15G16G17G18
+        G19G20G21G22G23G24G25G26G27G28G29G30G31G32R01R02R03
+        R04R05R07R08R09R11R12R14R15R16R17R18R19R20R21R22R24
+        R25R26  0  0  0  0  0  0  0  0  0  0  0  0  0  0  0
+          0  0  0  0  0  0  0  0  0  0  0  0  0  0  0  0  0
++         6  7  7  7  7  9  7  7  8  7  8  8  7  7  6  7  7
++         8  7  7  7  7  6  7  7  7  8  7  9  7  7  8  9  7
++         7  7  7  9  8  9  6  8  8  9  8  7 10  9 10  7  7
++        10  8  0  0  0  0  0  0  0  0  0  0  0  0  0  0  0
++         0  0  0  0  0  0  0  0  0  0  0  0  0  0  0  0  0
%c M  cc GPS ccc cccc cccc cccc cccc ccccc ccccc ccccc ccccc
%c cc cc ccc ccc cccc cccc cccc cccc ccccc ccccc ccccc ccccc
%f  0.0000000  0.000000000  0.00000000000  0.000000000000000
%f  0.0000000  0.000000000  0.00000000000  0.000000000000000
%i    0    0    0    0      0      0      0      0         0
%i    0    0    0    0      0      0      0      0         0
/* IAC                                ULTRA-RAPID PREDICTION
/* S/V CLOCKS ARE ALIGNED TO GNSS TIME                      
/* G:C1WC2W R:C1PC2P E:C1XC5X C:C2IC6I J:C1CC2S             
/* PCV:IGS20_2317 OL/AL:FES2004  NONE     YN ORB:CoN CLK:CoN
*  2024 10 03 23  0  0.00000000
PG02  -6978.496564 -13757.900081 -21192.091153   -344.765098
PG03 -12484.162489 -23287.006913  -3400.061616    558.864387
PG04  -3475.132898 -19339.396887  17814.634721    455.257352
PG05    871.885724  20465.090597  16689.561903   -188.649620
PG06 -25232.630046   5394.584031   6602.869932    -13.001554
PG07 -22573.105732  -7735.046158  12658.548951    -31.073715
PG08   4524.269805 -24545.356353  -8527.892102    373.181468
PG09 -11827.348467 -10135.591945  21411.808829    383.309707
PG10  17007.582183   1524.842066 -20223.822585   -146.203979
PG11 -14598.594899  12725.689842  18181.262463   -740.897658
PG12   8357.187011  24393.563871  -6744.401427   -542.614926
PG13 -13359.749227  22650.611216  -2881.382007    679.724784
PG14 -18740.816848  -5220.304432 -18135.601735    509.639720
PG15   -899.763859  25015.774132  -9154.306870    211.571140
PG16   5284.302859 -17616.024411  18653.482617   -164.300046
PG17 -18138.285317   6687.721493 -17871.503267    607.264404
PG18  23218.880228   6737.880338  11278.074516   -656.536548
PG19 -18919.285477  13773.908479 -12294.513448    546.059721
PG20  -8153.232626  13452.003625  21487.557431    370.012733
PG21   -907.166089 -15003.318692 -21445.247667    100.502398
PG22 -15099.786085   3187.623917 -21176.611526    -67.830969
PG23  19400.898125  13829.078040 -11941.382948    333.934188
PG24   4868.237559  15371.885691 -21580.940789   -485.736733
PG25  17271.240462  19850.355119   4200.011034    499.596062
PG26  13856.888116  -7829.436555  21122.265279     64.379202
PG27  12473.742824 -23118.308685   1444.145293    -34.305095
PG28  25728.977864  -5179.132705   4084.899420   -433.595136
PG29   9245.032443  12914.781454  21226.782764   -573.729607
PG30 -26578.546184   -415.008494   2712.592926   -309.338563
PG31  19456.147016 -10936.779081  14442.064357   -223.885135
PG32  17760.763045  -8743.564006 -17393.267021   -590.740244
PR01   7514.893794  16134.819308 -18274.919311     99.842482
PR02  10906.116234  -1389.813781 -22974.537832    -24.980901
PR03   8827.961076 -18840.047680 -14670.749078    108.743589
PR04   2236.179877 -25363.992330   1351.732083    257.645172
PR05  -5614.314686 -18449.436003  16683.253447    138.600332
PR07  -8730.474395  19277.753241  14318.253461     92.175415
PR08  -1941.544079  25411.406455  -1470.052832     -6.416183
PR09 -21224.822395  -6784.558954 -12472.361958    212.659512
PR11   3984.901011  14678.631237 -20460.132079     10.203639
PR12  18917.893741  16388.132751  -4928.621266     45.586212
PR14  10851.135738  -5673.081076  22387.791170     27.008660
PR15  -5459.854747 -15457.758573  19566.199879     75.213614
PR16 -18895.334232 -16365.595680   5186.250979     29.667276
PR17  20488.851827 -13007.398092  -7925.098720    127.598056
PR18   7505.479890 -13255.859874 -20428.070704    165.146103
PR19  -7378.748703  -8170.975139 -23003.564934   -293.597866
PR20 -22915.251653   3811.010481 -10557.694353   -119.947721
PR21 -20962.224223  12584.078294   7210.641043   -139.769350
PR22  -6474.101972  13231.091467  20855.605604     30.895562
PR24  22941.878874  -4963.359086  10039.981634    -74.588581
PR25 -20664.161272  12429.133356   8283.485796    -95.306798
PR26  -2516.924185  25375.133246    106.231571     57.952324
*  2024 10 03 23 15  0.00000000
PG02  -4479.907904 -14220.011016 -21522.403408   -344.757808
PG03 -12043.455884 -22949.905974  -6230.008754    558.875599
PG04  -2459.250022 -20996.145863  16002.710393    455.263571
PG05   -493.190926  18943.029827  18401.690315   -188.650712
PG06 -25825.346502   5280.084311   3777.403619    -13.025921
PG07 -21114.162923  -8047.948566  14842.475625    -31.070372
PG08   5115.238342 -25186.168843  -5830.505581    373.192355
PG09 -10807.037337 -12347.710093  20777.698447    383.324430
PG10  18250.716770   3420.290132 -18908.341179   -146.215674
PG11 -16578.727981  12665.231654  16432.826837   -740.900749
PG12   7701.868867  23752.620213  -9396.930573   -542.617386
PG13 -13638.312515  22637.515218      4.447035    679.726585
PG14 -19711.042521  -6959.593345 -16470.126994    509.647323
PG15  -1423.369808  25743.447635  -6534.077397    211.575144
PG16   6558.445807 -15712.096809  19925.016475   -164.291044
PG17 -17205.524443   4690.744704 -19320.352901    607.253286
PG18  21821.729843   7002.221145  13642.174082   -656.538058
PG19 -18319.844400  12351.137084 -14571.212286    546.064003
PG20  -9919.251320  11741.518786  21733.703102    370.012373
PG21   1592.957485 -15388.744194 -21041.172695    100.501684
PG22 -16274.112857   1007.381258 -20498.014300    -67.834148
PG23  20003.090240  14898.272500  -9419.565884    333.941614
PG24   2522.854581  15813.821459 -21627.871622   -485.735990
PG25  17267.491075  20295.346782   1405.371635    499.595964
PG26  15394.625510  -5942.133919  20706.004318     64.371035
PG27  12589.196855 -22665.932164   4297.898785    -34.305389
PG28  26063.891981  -4968.027254   1248.793003   -433.607098
PG29   8017.082048  14964.085177  20353.360428   -573.727309
PG30 -26159.231599   -753.203151   5451.491909   -309.331937
PG31  21014.867372 -10846.918306  12222.726890   -223.884692
PG32  17027.751219  -6742.929669 -18947.250705   -590.736546
PR01   7528.780134  18259.994385 -16144.062482     99.843579
PR02  10676.410752   1454.038615 -23084.073425    -24.981107
PR03   8579.149079 -16887.190857 -17009.274061    108.744167
PR04   2055.217510 -25343.072525  -1876.906608    257.646767
PR05  -5589.076194 -20366.605725  14286.595288    138.600842
PR07  -8472.051788  17384.929182  16699.188554     92.176038
PR08  -1774.484476  25412.824713   1746.905535     -6.416198
PR09 -22430.128617  -7435.551852  -9693.172611    212.661446
PR11   1837.161382  13200.269533 -21734.015534     10.202773
PR12  18322.147034  15837.158459  -8003.655748     45.586594
PR14  13132.714659  -4225.781083  21464.348111     27.008685
PR15  -3411.774951 -14021.029244  21056.832552     75.213121
PR16 -18287.487490 -15784.145905   8259.468293     29.667669
PR17  21119.188356 -13514.957136  -4822.200522    127.601304
PR18   9656.622058 -14374.896232 -18692.766910    165.147741
PR19  -4740.927244  -9280.025922 -23277.309826   -293.599080
PR20 -21480.825608   3406.920726 -13339.116845   -119.948132
PR21 -21511.414710  13053.951174   4069.036853   -139.772265
PR22  -8707.744840  14288.380707  19284.016388     30.886385
PR24  21616.586108  -4472.297414  12827.801711    -74.590113
PR25 -21372.154525  12887.661469   5211.838298    -95.304066
PR26  -2340.393100  25176.380800   3318.714540     57.974000
EOF
